COSMOS 2550             
1 48865U 21056A   26067.47400841 -.00000192  00000+0 -13338-7 0  9992
2 48865  67.1451  44.6088 0008369 269.6014  90.4182 15.33829151263273
STARLINK-35293          
1 66012U 25232H   26068.51857394  .00033184  00000+0  11275-2 0  9999
2 66012  53.1577 104.4001 0001270  77.7877 282.3266 15.30199704 23416
